NORAD_CAT_ID,OBJECT_NAME,OBJECT_TYPE,EPOCH,MEAN_MOTION,ECCENTRICITY,INCLINATION,RA_OF_ASC_NODE,ARG_OF_PERICENTER,MEAN_ANOMALY,BSTAR,MEAN_MOTION_DOT,MEAN_MOTION_DDOT,TLE_LINE0,TLE_LINE1,TLE_LINE2,SEMIMAJOR_AXIS,PERIOD,APOGEE,PERIGEE,DECAYED
54760.0,STARLINK-5220,PAYLOAD,2024-05-16 06:30:32,15.08856791,0.0001633,53.2151,138.0231,80.4994,279.6182,7.0036e-05,8.27e-06,0.0,0 STARLINK-5220,1 54760U 22175C   24137.27121303  .00000827  00000-0  70036-4 0  9992,2 54760  53.2151 138.0231 0001633  80.4994 279.6182 15.08856791 79917,6917.829,95.436,540.824,538.564,0.0
54760.0,STARLINK-5220,PAYLOAD,2024-05-16 17:38:14,15.08852716,0.0001574,53.2152,135.94,84.9983,275.1188,9.9087e-07,-2.72e-06,0.0,0 STARLINK-5220,1 54760U 22175C   24137.73489066 -.00000272  00000-0  99087-6 0  9990,2 54760  53.2152 135.9400 0001574  84.9983 275.1188 15.08852716 79980,6917.842,95.437,540.795,538.618,0.0
54760.0,STARLINK-5220,PAYLOAD,2024-05-17 09:32:05,15.08855001,0.0001575,53.2172,132.9665,87.3943,272.723,-9.3962e-05,-1.784e-05,0.0,0 STARLINK-5220,1 54760U 22175C   24138.39728721 -.00001784  00000-0 -93962-4 0  9991,2 54760  53.2172 132.9665 0001575  87.3943 272.7230 15.08855001 77929,6917.835,95.437,540.789,538.61,0.0
54760.0,STARLINK-5220,PAYLOAD,2024-05-18 06:12:06,15.08842265,0.0001469,53.2161,129.1,87.7129,272.4031,-9.9238e-06,-4.46e-06,0.0,0 STARLINK-5220,1 54760U 22175C   24139.25841032 -.00000446  00000-0 -99238-5 0  9995,2 54760  53.2161 129.1000 0001469  87.7129 272.4031 15.08842265 78059,6917.873,95.437,540.755,538.722,0.0
54760.0,STARLINK-5220,PAYLOAD,2024-05-18 09:22:52,15.08842255,0.000149,53.2163,128.5055,88.0688,272.0475,-9.4937e-06,-4.39e-06,0.0,0 STARLINK-5220,1 54760U 22175C   24139.39089017 -.00000439  00000-0 -94937-5 0  9990,2 54760  53.2163 128.5055 0001490  88.0688 272.0475 15.08842255 80232,6917.873,95.437,540.769,538.708,0.0
54760.0,STARLINK-5220,PAYLOAD,2024-05-18 15:44:25,15.08841656,0.0001511,53.2166,127.3156,88.1654,271.9511,-7.1672e-06,-4.02e-06,0.0,0 STARLINK-5220,1 54760U 22175C   24139.65585015 -.00000402  00000-0 -71672-5 0  9999,2 54760  53.2166 127.3156 0001511  88.1654 271.9511 15.08841656 80279,6917.875,95.437,540.786,538.695,0.0
54760.0,STARLINK-5220,PAYLOAD,2024-05-19 04:27:31,15.0883443,0.0001617,53.217,124.9382,92.7971,267.3206,-3.6583e-05,-8.7e-06,0.0,0 STARLINK-5220,1 54760U 22175C   24140.18577780 -.00000870  00000-0 -36583-4 0  9999,2 54760  53.2170 124.9382 0001617  92.7971 267.3206 15.08834430 78198,6917.897,95.438,540.881,538.644,0.0
54760.0,STARLINK-5220,PAYLOAD,2024-05-19 06:02:54,15.08835257,0.0001514,53.217,124.6413,90.5213,269.5953,-1.5866e-05,-5.4e-06,0.0,0 STARLINK-5220,1 54760U 22175C   24140.25201688 -.00000540  00000-0 -15866-4 0  9993,2 54760  53.2170 124.6413 0001514  90.5213 269.5953 15.08835257 80364,6917.895,95.438,540.807,538.713,0.0
54760.0,STARLINK-5220,PAYLOAD,2024-05-20 09:04:27,15.08838783,0.0001465,53.2168,119.5848,99.3254,260.7904,4.2861e-05,3.94e-06,0.0,0 STARLINK-5220,1 54760U 22175C   24141.37809602  .00000394  00000-0  42861-4 0  9997,2 54760  53.2168 119.5848 0001465  99.3254 260.7904 15.08838783 78377,6917.884,95.438,540.763,538.736,0.0
54760.0,STARLINK-5220,PAYLOAD,2024-05-21 02:33:44,15.08769796,0.000117,53.217,116.3121,112.256,247.8556,0.00090302,0.00014085,0.0,0 STARLINK-5220,1 54760U 22175C   24142.10676207  .00014085  00000-0  90302-3 0  9996,2 54760  53.2170 116.3121 0001170 112.2560 247.8556 15.08769796 78485,6918.095,95.442,540.769,539.151,0.0
54760.0,STARLINK-5220,PAYLOAD,2024-05-21 07:19:52,15.08834021,0.0001359,53.2168,115.4187,93.2292,266.8856,4.3057e-05,3.97e-06,0.0,0 STARLINK-5220,1 54760U 22175C   24142.30546310  .00000397  00000-0  43057-4 0  9996,2 54760  53.2168 115.4187 0001359  93.2292 266.8856 15.08834021 78515,6917.899,95.438,540.704,538.824,0.0
54760.0,STARLINK-5220,PAYLOAD,2024-05-22 03:59:52,15.08843721,0.0001262,53.2165,111.5532,91.5323,268.5814,8.2146e-05,1.02e-05,0.0,0 STARLINK-5220,1 54760U 22175C   24143.16657661  .00001020  00000-0  82146-4 0  9999,2 54760  53.2165 111.5532 0001262  91.5323 268.5814 15.08843721 78646,6917.869,95.437,540.607,538.861,0.0
54760.0,STARLINK-5220,PAYLOAD,2024-05-22 05:35:15,15.08847773,0.0001305,53.2169,111.2559,87.1164,272.9978,9.408e-05,1.21e-05,0.0,0 STARLINK-5220,1 54760U 22175C   24143.23281406  .00001210  00000-0  94080-4 0  9998,2 54760  53.2169 111.2559 0001305  87.1164 272.9978 15.08847773 80811,6917.857,95.437,540.624,538.819,0.0
54760.0,STARLINK-5220,PAYLOAD,2024-05-22 21:29:08,15.08828825,0.000156,53.218,108.2861,76.6434,283.4732,2.5051e-05,1.11e-06,0.0,0 STARLINK-5220,1 54760U 22175C   24143.89523197  .00000111  00000-0  25051-4 0  9997,2 54760  53.2180 108.2861 0001560  76.6434 283.4732 15.08828825 78754,6917.915,95.438,540.859,538.7,0.0
54760.0,STARLINK-5220,PAYLOAD,2024-05-23 03:50:40,15.08829772,0.0001288,53.2182,107.0962,92.8718,267.2422,-1.5355e-05,-5.32e-06,0.0,0 STARLINK-5220,1 54760U 22175C   24144.16019306 -.00000532  00000-0 -15355-4 0  9995,2 54760  53.2182 107.0962 0001288  92.8718 267.2422 15.08829772 80950,6917.912,95.438,540.668,538.886,0.0
54760.0,STARLINK-5220,PAYLOAD,2024-05-24 03:41:25,15.08865641,0.0001507,53.218,102.6373,88.561,271.5555,0.00013892,1.925e-05,0.0,0 STARLINK-5220,1 54760U 22175C   24145.15376520  .00001925  00000-0  13892-3 0  9997,2 54760  53.2180 102.6373 0001507  88.5610 271.5555 15.08865641 78948,6917.802,95.436,540.71,538.625,0.0
54760.0,STARLINK-5220,PAYLOAD,2024-05-24 06:52:11,15.08865407,0.0001534,53.2183,102.0397,86.5086,273.6081,0.0001329,1.829e-05,0.0,0 STARLINK-5220,1 54760U 22175C   24145.28624368  .00001829  00000-0  13290-3 0  9992,2 54760  53.2183 102.0397 0001534  86.5086 273.6081 15.08865407 81127,6917.803,95.436,540.729,538.607,0.0
54760.0,STARLINK-5220,PAYLOAD,2024-05-24 21:10:41,15.08828085,0.0001257,53.2174,99.3641,108.2067,251.9062,2.4118e-05,9.6e-07,0.0,0 STARLINK-5220,1 54760U 22175C   24145.88243014  .00000096  00000-0  24118-4 0  9990,2 54760  53.2174  99.3641 0001257 108.2067 251.9062 15.08828085 79058,6917.917,95.438,540.651,538.912,0.0
54760.0,STARLINK-5220,PAYLOAD,2024-05-25 03:32:14,15.08833816,0.0001426,53.2163,98.1701,115.1381,244.9759,-7.7e-06,-4.1e-06,0.0,0 STARLINK-5220,1 54760U 22175C   24146.14738775 -.00000410  00000-0 -77000-5 0  9994,2 54760  53.2163  98.1701 0001426 115.1381 244.9759 15.08833816 81252,6917.899,95.438,540.751,538.778,0.0
54760.0,STARLINK-5220,PAYLOAD,2024-05-26 03:23:01,15.08847462,0.0001679,53.2178,93.7251,114.2353,245.8814,-0.00013542,-2.443e-05,0.0,0 STARLINK-5220,1 54760U 22175C   24147.14098733 -.00002443  00000-0 -13542-3 0  9995,2 54760  53.2178  93.7251 0001679 114.2353 245.8814 15.08847462 79248,6917.858,95.437,540.884,538.561,0.0
54760.0,STARLINK-5220,PAYLOAD,2024-05-26 20:52:15,15.08833649,0.0001453,53.2172,90.4452,110.674,249.4408,5.4312e-05,5.76e-06,0.0,0 STARLINK-5220,1 54760U 22175C   24147.86962809  .00000576  00000-0  54312-4 0  9992,2 54760  53.2172  90.4452 0001453 110.6740 249.4408 15.08833649 79352,6917.9,95.438,540.77,538.76,0.0
54760.0,STARLINK-5220,PAYLOAD,2024-05-27 12:46:07,15.08836894,0.0001635,53.2182,87.4711,110.4751,249.6417,8.969e-05,1.14e-05,0.0,0 STARLINK-5220,1 54760U 22175C   24148.53202767  .00001140  00000-0  89690-4 0  9992,2 54760  53.2182  87.4711 0001635 110.4751 249.6417 15.08836894 81618,6917.89,95.438,540.886,538.624,0.0
54760.0,STARLINK-5220,PAYLOAD,2024-05-27 19:07:40,15.08836405,0.0001567,53.2186,86.2828,105.4011,254.7154,1.8267e-05,3e-08,0.0,0 STARLINK-5220,1 54760U 22175C   24148.79699263  .00000003  00000-0  18267-4 0  9990,2 54760  53.2186  86.2828 0001567 105.4011 254.7154 15.08836405 81652,6917.891,95.438,540.84,538.672,0.0
54760.0,STARLINK-5220,PAYLOAD,2024-05-28 04:39:58,15.08840933,0.0001316,53.2166,84.4952,107.4468,252.6668,6.217e-07,-2.78e-06,0.0,0 STARLINK-5220,1 54760U 22175C   24149.19443100 -.00000278  00000-0  62170-6 0  9991,2 54760  53.2166  84.4952 0001316 107.4468 252.6668 15.08840933 79552,6917.878,95.437,540.653,538.832,0.0
54760.0,STARLINK-5220,PAYLOAD,2024-05-29 04:30:45,15.08842405,0.0001463,53.2171,80.0358,100.1527,259.963,3.7074e-05,3.02e-06,0.0,0 STARLINK-5220,1 54760U 22175C   24150.18803023  .00000302  00000-0  37074-4 0  9996,2 54760  53.2171  80.0358 0001463 100.1527 259.9630 15.08842405 81861,6917.873,95.437,540.75,538.726,0.0
54760.0,STARLINK-5220,PAYLOAD,2024-05-30 02:46:09,15.08840918,0.0001446,53.2177,75.8738,83.9032,276.2125,7.4765e-05,9.02e-06,0.0,0 STARLINK-5220,1 54760U 22175C   24151.11539184  .00000902  00000-0  74765-4 0  9998,2 54760  53.2177  75.8738 0001446  83.9032 276.2125 15.08840918 79844,6917.878,95.437,540.743,538.742,0.0
54760.0,STARLINK-5220,PAYLOAD,2024-05-30 18:40:01,15.08853494,0.0001535,53.2186,72.901,81.6798,278.4368,-3.4687e-05,-8.4e-06,0.0,0 STARLINK-5220,1 54760U 22175C   24151.77778965 -.00000840  00000-0 -34687-4 0  9994,2 54760  53.2186  72.9010 0001535  81.6798 278.4368 15.08853494 82107,6917.839,95.437,540.766,538.642,0.0
54760.0,STARLINK-5220,PAYLOAD,2024-05-31 04:12:18,15.08850648,0.0001353,53.2178,71.116,91.5227,268.592,0.00017617,2.518e-05,0.0,0 STARLINK-5220,1 54760U 22175C   24152.17521974  .00002518  00000-0  17617-3 0  9990,2 54760  53.2178  71.1160 0001353  91.5227 268.5920 15.08850648 80009,6917.848,95.437,540.649,538.777,0.0
54760.0,STARLINK-5220,PAYLOAD,2024-06-01 04:03:06,15.08844854,0.0001519,53.2187,66.6548,96.1258,263.9907,2.0356e-05,3.6e-07,0.0,0 STARLINK-5220,1 54760U 22175C   24153.16882616  .00000036  00000-0  20356-4 0  9991,2 54760  53.2187  66.6548 0001519  96.1258 263.9907 15.08844854 80159,6917.866,95.437,540.781,538.68,0.0
54760.0,STARLINK-5220,PAYLOAD,2024-06-01 21:32:21,15.0883331,0.0001543,53.2179,63.3818,101.6005,258.5161,-5.8048e-05,-1.212e-05,0.0,0 STARLINK-5220,1 54760U 22175C   24153.89747659 -.00001212  00000-0 -58048-4 0  9996,2 54760  53.2179  63.3818 0001543 101.6005 258.5161 15.08833310 80262,6917.901,95.438,540.833,538.698,0.0
